[{"OBJECT_NAME":"STARLINK-4544","OBJECT_ID":"2022-097G","EPOCH":"2026-03-09T12:31:32.344032","MEAN_MOTION":15.08839779,"ECCENTRICITY":0.0001436,"INCLINATION":53.217,"RA_OF_ASC_NODE":114.4865,"ARG_OF_PERICENTER":83.1077,"MEAN_ANOMALY":277.0079,"EPHEMERIS_TYPE":0,"CLASSIFICATION_TYPE":"U","NORAD_CAT_ID":53394,"ELEMENT_SET_NO":999,"REV_AT_EPOCH":19879,"BSTAR":7.617e-6,"MEAN_MOTION_DOT":-1.67e-6,"MEAN_MOTION_DDOT":0},{"OBJECT_NAME":"CZ-6A DEB","OBJECT_ID":"2022-151RK","EPOCH":"2026-03-09T04:16:52.342176","MEAN_MOTION":15.00981633,"ECCENTRICITY":0.00383954,"INCLINATION":98.6273,"RA_OF_ASC_NODE":143.4522,"ARG_OF_PERICENTER":188.2396,"MEAN_ANOMALY":171.8199,"EPHEMERIS_TYPE":0,"CLASSIFICATION_TYPE":"U","NORAD_CAT_ID":54922,"ELEMENT_SET_NO":999,"REV_AT_EPOCH":17321,"BSTAR":0.0056092635,"MEAN_MOTION_DOT":0.00073321,"MEAN_MOTION_DDOT":0}]
